{
  "norad_id": 58883,
  "name": "STARLINK-31209",
  "history": [
    {
      "epoch": "2026-03-28T16:58:54.740928",
      "apogee_km": 476.24259000626444,
      "perigee_km": 474.32911434593734,
      "latitude_deg": -24.97011521585175,
      "longitude_deg": 136.22748991986737,
      "semi_major_axis_km": 6853.422852176101,
      "eccentricity": 0.0001396,
      "inclination_deg": 53.1591,
      "raan_deg": 234.0285,
      "arg_perigee_deg": 84.8297,
      "mean_anomaly_deg": 275.2863,
      "mean_motion_rev_day": 15.30176294
    },
    {
      "epoch": "2026-03-29T02:23:13.496928",
      "apogee_km": 476.194625796682,
      "perigee_km": 474.28801594781635,
      "latitude_deg": -24.35598069041251,
      "longitude_deg": 173.84832992008887,
      "semi_major_axis_km": 6853.378320872249,
      "eccentricity": 0.0001391,
      "inclination_deg": 53.1595,
      "raan_deg": 232.2139,
      "arg_perigee_deg": 97.0959,
      "mean_anomaly_deg": 263.02,
      "mean_motion_rev_day": 15.30191208
    }
  ]
}